{"type":"FeatureCollection","features":[{"type":"Feature","properties":{"id":"47dd65ca-457e-4dee-99cc-f56dce1bfa0e","length":0.44207718730587237},"geometry":{"type":"LineString","coordinates":[[-87.22982714575886,13.3153851608155],[-87.22843837289267,13.31913768178457]]}},{"type":"Feature","properties":{"id":"abf1e981-9892-4332-9a2d-17d55f73d80c","length":0.44267125388098316},"geometry":{"type":"LineString","coordinates":[[-87.22854040518487,13.31917736100932],[-87.22991217266905,13.315424840040254]]}},{"type":"Feature","properties":{"id":"417b69c5-cf00-4b2e-bfcc-1b49f50a5067","length":0.4373037560183402},"geometry":{"type":"LineString","coordinates":[[-87.23059238795044,13.315719599995523],[-87.22922628892695,13.319432441739847]]}},{"type":"Feature","properties":{"id":"1b36f663-8e3b-4b6e-875a-ba2c59130968","length":0.43869679527510347},"geometry":{"type":"LineString","coordinates":[[-87.23102885942268,13.315883985355196],[-87.22967976578121,13.319608164020872]]}},{"type":"Feature","properties":{"id":"4985ba79-91bd-4793-b358-eb38c677c79d","length":0.4446584620362258},"geometry":{"type":"LineString","coordinates":[[-87.22836468290384,13.319115007941859],[-87.22974778730936,13.31534548159075]]}},{"type":"Feature","properties":{"id":"24daa52b-c218-4a77-82af-748a63b697f6","length":0.4333293388231671},"geometry":{"type":"LineString","coordinates":[[-87.23111955479352,13.315923664579945],[-87.22975345577004,13.31961950094223]]}},{"type":"Feature","properties":{"id":"174c8a7b-9bb0-49f3-b93a-595f72750cfb","length":0.43929100431396695},"geometry":{"type":"LineString","coordinates":[[-87.22999719957922,13.315470187725676],[-87.2286140951737,13.319205703312711]]}},{"type":"Feature","properties":{"id":"ff44aab0-ca28-4577-a897-b8144047cd47","length":0.4398851879881365},"geometry":{"type":"LineString","coordinates":[[-87.2305243664223,13.315674252310096],[-87.22915259893816,13.319404099436458]]}},{"type":"Feature","properties":{"id":"0ed0b783-bf45-4daa-bc52-6d9e8e82b886","length":0.43611563081177485},"geometry":{"type":"LineString","coordinates":[[-87.23095516943386,13.315861311512482],[-87.22957773348901,13.319562816335447]]}},{"type":"Feature","properties":{"id":"dfa45353-f495-4614-a501-21d98adcf488","length":0.3088946817156062},"geometry":{"type":"LineString","coordinates":[[-87.2326216968733,13.316484842187101],[-87.23163538471526,13.319115007941864]]}},{"type":"Feature","properties":{"id":"7ddd2098-f015-40bf-a50e-51897f8f3df8","length":0.438696859515732},"geometry":{"type":"LineString","coordinates":[[-87.23025228030974,13.315572220017886],[-87.22887484436491,13.31930206714425]]}},{"type":"Feature","properties":{"id":"2dea913c-bf0b-4dc1-9510-35523a82ca1e","length":0.439290948180094},"geometry":{"type":"LineString","coordinates":[[-87.2306830833213,13.315747942298914],[-87.22933398967984,13.319477789425271]]}},{"type":"Feature","properties":{"id":"5751abf6-3d75-4c1b-a516-d3e779cdf290","length":0.4245817340632909},"geometry":{"type":"LineString","coordinates":[[-87.23006522110735,13.315515535411103],[-87.22876147515133,13.319120676402534]]}},{"type":"Feature","properties":{"id":"c84806ca-b0d2-4346-bbf4-12814681ec23","length":0.4392909344326247},"geometry":{"type":"LineString","coordinates":[[-87.23085880560232,13.315815963827056],[-87.2295040435002,13.31954014249274]]}},{"type":"Feature","properties":{"id":"8813d178-73fa-4499-a95a-9dd446b12604","length":0.3116808533738875},"geometry":{"type":"LineString","coordinates":[[-87.23173741700747,13.319154687166607],[-87.2326953868621,13.316507516029812]]}},{"type":"Feature","properties":{"id":"4ca73b29-d46c-411d-bd9a-df1cecf894f1","length":0.443265456338289},"geometry":{"type":"LineString","coordinates":[[-87.22819462908349,13.319046986413719],[-87.22957206502832,13.315288796983968]]}},{"type":"Feature","properties":{"id":"8c565b98-568a-4c0f-bad7-5c838a4b577e","length":0.31286915141679916},"geometry":{"type":"LineString","coordinates":[[-87.23104019634403,13.318882601054046],[-87.2320151715807,13.316229761456572]]}},{"type":"Feature","properties":{"id":"6392a5d8-0b24-440b-b31a-ba82771df640","length":0.44326545172077503},"geometry":{"type":"LineString","coordinates":[[-87.22826831907231,13.319069660256432],[-87.22966276039921,13.315317139287364]]}},{"type":"Feature","properties":{"id":"44640da1-4cf6-4a7f-a39c-193cb4bfe648","length":0.3096937753976651},"geometry":{"type":"LineString","coordinates":[[-87.23138030398474,13.316014359950797],[-87.23042233413008,13.318638857244874]]}},{"type":"Feature","properties":{"id":"275a486b-2480-41f9-8abd-ef0b2f5400cb","length":0.4378979740412422},"geometry":{"type":"LineString","coordinates":[[-87.22905056664592,13.319370088672384],[-87.23042800259077,13.315628904624672]]}},{"type":"Feature","properties":{"id":"48520f85-8763-441f-8b28-7adac5e80e35","length":0.4373037868304952},"geometry":{"type":"LineString","coordinates":[[-87.22880115437607,13.319273724840853],[-87.23016725339956,13.315572220017884]]}},{"type":"Feature","properties":{"id":"30b26e17-c49f-4735-bcc5-f51d661fc350","length":0.44187243322983094},"geometry":{"type":"LineString","coordinates":[[-87.23034297568059,13.315594893860599],[-87.22897687665711,13.319341746368993]]}},{"type":"Feature","properties":{"id":"b8d7da99-0b83-488d-b2a7-56eb3bffd17c","length":0.3134634802016289},"geometry":{"type":"LineString","coordinates":[[-87.23228158923258,13.316320456827428],[-87.23128960861386,13.318978964885577]]}},{"type":"Feature","properties":{"id":"e44c19f6-e49b-4270-a3ce-c16709ef81ec","length":0.4361156445435501},"geometry":{"type":"LineString","coordinates":[[-87.23077944715283,13.315793289984342],[-87.229402011208,13.319500463267994]]}},{"type":"Feature","properties":{"id":"bc171323-cfb5-4063-a8a4-78cd8b183cc5","length":0.3148564204054108},"geometry":{"type":"LineString","coordinates":[[-87.23023527492771,13.31862752032352],[-87.23122158708574,13.315952006883332]]}},{"type":"Feature","properties":{"id":"adf584ea-2c7b-4ea3-bc7d-b502d0c37398","length":0.31485637376730646},"geometry":{"type":"LineString","coordinates":[[-87.23218522540105,13.31628077760268],[-87.23121591862505,13.31895062258218]]}},{"type":"Feature","properties":{"id":"235329e0-a8e9-45ca-85ad-aeb4b5a78fc9","length":0.30830061387438834},"geometry":{"type":"LineString","coordinates":[[-87.23051869796161,13.318672868008948],[-87.23148233627694,13.316054039175548]]}},{"type":"Feature","properties":{"id":"cf5c3f3d-1363-4e02-8396-78b3870da67c","length":0.3088947332360034},"geometry":{"type":"LineString","coordinates":[[-87.2316523900973,13.316122060703687],[-87.2306830833213,13.318735221076409]]}},{"type":"Feature","properties":{"id":"46c9c6d9-f41f-4d46-9825-c086aae52ff4","length":0.30889475175082626},"geometry":{"type":"LineString","coordinates":[[-87.23130094553524,13.315991686108084],[-87.23032597029855,13.318610514941488]]}},{"type":"Feature","properties":{"id":"a06c9895-d466-4af0-93f6-9cb4454ba37e","length":0.31485636313021176},"geometry":{"type":"LineString","coordinates":[[-87.23139164090608,13.319024312571004],[-87.23234961076074,13.316348799130827]]}},{"type":"Feature","properties":{"id":"e82f1a89-491b-4911-9cbc-826327b2680e","length":0.3116808484726242},"geometry":{"type":"LineString","coordinates":[[-87.23278608223296,13.316541526793886],[-87.23181110699629,13.319183029469997]]}},{"type":"Feature","properties":{"id":"5e3d29fb-6aa1-406e-bd45-cbdf6d40f168","length":0.31346348994890294},"geometry":{"type":"LineString","coordinates":[[-87.23210586695156,13.316252435299289],[-87.23111955479354,13.318905274896762]]}},{"type":"Feature","properties":{"id":"51d6bbfc-dfba-4714-bb06-b44dd5752764","length":0.31624936520826374},"geometry":{"type":"LineString","coordinates":[[-87.23183944929967,13.316122060703687],[-87.23085313714164,13.318803242604552]]}},{"type":"Feature","properties":{"id":"4918afa2-1ded-4153-a0dd-11f4c89df725","length":0.258805349843126},"geometry":{"type":"LineString","coordinates":[[-87.23191880774917,13.316207087613861],[-87.23093816405182,13.31884859028997]]}},{"type":"Feature","properties":{"id":"84fcacc1-9cfc-4c16-bae1-07bbc07f7b23","length":0.3122749278415648},"geometry":{"type":"LineString","coordinates":[[-87.2324346376709,13.316394146816247],[-87.2314653308949,13.319046986413722]]}},{"type":"Feature","properties":{"id":"d3d78679-1c40-4eee-9802-a8873582e79e","length":0.3100834246744246},"geometry":{"type":"LineString","coordinates":[[-87.23155035780508,13.31607671301826],[-87.23059805641111,13.318706878773016]]}},{"type":"Feature","properties":{"id":"e50ae5f6-02e3-4c48-b3fb-c0d726e4b4f9","length":0.31088189873115996},"geometry":{"type":"LineString","coordinates":[[-87.2325139961204,13.316445162962353],[-87.23156169472644,13.31908666563847]]}},{"type":"Feature","properties":{"id":"dc978c29-a756-4c99-a751-759a13c7666e","length":0.3102877781281723},"geometry":{"type":"LineString","coordinates":[[-87.23173174854679,13.3161447345464],[-87.23077944715281,13.31878056876183]]}},{"type":"Feature","properties":{"id":"82607e88-af36-46c3-83dd-f15f1efa0af1","length":0.31223313556573556},"geometry":{"type":"LineString","coordinates":[[-87.22665280777898,13.314512217871034],[-87.22940201120797,13.315487193107707]]}},{"type":"Feature","properties":{"id":"16af0e86-6116-414c-90b4-4abc8a4b00c9","length":0.3241195333790581},"geometry":{"type":"LineString","coordinates":[[-87.22950971196087,13.31545318234364],[-87.22670382392509,13.314432859421538]]}},{"type":"Feature","properties":{"id":"5a9f6870-abf2-4008-8099-f670726eab2b","length":0.3182865039291723},"geometry":{"type":"LineString","coordinates":[[-87.22937366890459,13.315583556939243],[-87.2266187970149,13.314580239399172]]}},{"type":"Feature","properties":{"id":"e361c957-b7c4-4a2f-9e10-a0ead101d22a","length":0.3102886097680031},"geometry":{"type":"LineString","coordinates":[[-87.22933965814052,13.315645910006705],[-87.22660179163289,13.314670934770026]]}},{"type":"Feature","properties":{"id":"a4290964-5905-4f6c-a22f-f9c6e75567de","length":0.28731087999983257},"geometry":{"type":"LineString","coordinates":[[-87.22927163661238,13.315804626905699],[-87.22675484007118,13.314909010118521]]}},{"type":"Feature","properties":{"id":"f5d84176-54d3-4929-be88-b4fb8116ba39","length":0.11661236658053543},"geometry":{"type":"LineString","coordinates":[[-87.22655644394744,13.314738956298168],[-87.22778649991466,13.315192433152435]]}},{"type":"Feature","properties":{"id":"f7c0336c-5647-4c1b-8365-9fe4f9db155c","length":0.12510817997677345},"geometry":{"type":"LineString","coordinates":[[-87.22882949667947,13.315560883096529],[-87.22771280992583,13.315135748545655]]}},{"type":"Feature","properties":{"id":"acbf18a5-cf85-4513-a0f2-bf20f10465d8","length":0.042068912244059474},"geometry":{"type":"LineString","coordinates":[[-87.22914126201678,13.315691257692132],[-87.22877848053336,13.315555214635848]]}}]}